NORAD_CAT_ID,OBJECT_NAME,OBJECT_TYPE,EPOCH,MEAN_MOTION,ECCENTRICITY,INCLINATION,RA_OF_ASC_NODE,ARG_OF_PERICENTER,MEAN_ANOMALY,BSTAR,MEAN_MOTION_DOT,MEAN_MOTION_DDOT,TLE_LINE0,TLE_LINE1,TLE_LINE2,SEMIMAJOR_AXIS,PERIOD,APOGEE,PERIGEE,DECAYED
53896.0,STARLINK-5037,PAYLOAD,2023-07-19 19:24:51,15.08833131,0.0001031,53.2172,330.9879,78.3299,281.7809,-8.5578e-05,-1.649e-05,0.0,0 STARLINK-5037,1 53896U 22119L   23200.80893036 -.00001649  00000-0 -85578-4 0  9999,2 53896  53.2172 330.9879 0001031  78.3299 281.7809 15.08833131 45754,6917.901,95.438,540.48,539.053,0.0
53896.0,STARLINK-5037,PAYLOAD,2023-07-20 17:40:14,15.08852074,0.0001023,53.2169,326.8236,77.1546,282.956,0.00023778,3.5e-05,0.0,0 STARLINK-5037,1 53896U 22119L   23201.73628311  .00003500  00000-0  23778-3 0  9993,2 53896  53.2169 326.8236 0001023  77.1546 282.9560 15.08852074 45893,6917.843,95.437,540.416,539.001,0.0
53896.0,STARLINK-5037,PAYLOAD,2023-07-21 07:58:43,15.08843861,0.0001176,53.2175,324.1483,71.3131,288.7989,0.00029055,4.34e-05,0.0,0 STARLINK-5037,1 53896U 22119L   23202.33244830  .00004340  00000-0  29055-3 0  9997,2 53896  53.2175 324.1483 0001176  71.3131 288.7989 15.08843861 45983,6917.869,95.437,540.547,538.92,0.0
53896.0,STARLINK-5037,PAYLOAD,2023-07-24 07:31:05,15.08827298,0.0001409,53.2183,310.764,102.6454,257.4696,0.00044321,6.77e-05,0.0,0 STARLINK-5037,1 53896U 22119L   23205.31325584  .00006770  00000-0  44321-3 0  9996,2 53896  53.2183 310.7640 0001409 102.6454 257.4696 15.08827298 46854,6917.919,95.438,540.759,538.809,0.0
53896.0,STARLINK-5037,PAYLOAD,2023-07-25 12:08:01,15.08835895,0.0001079,53.2172,305.4128,99.3489,260.7625,6.6097e-07,-2.77e-06,0.0,0 STARLINK-5037,1 53896U 22119L   23206.50557244 -.00000277  00000-0  66097-6 0  9992,2 53896  53.2172 305.4128 0001079  99.3489 260.7625 15.08835895 47039,6917.893,95.438,540.504,539.011,0.0
53896.0,STARLINK-5037,PAYLOAD,2023-07-26 05:37:15,15.08867006,9.1e-05,53.2179,302.1424,98.0911,262.0184,-0.00032262,-5.422e-05,0.0,0 STARLINK-5037,1 53896U 22119L   23207.23420995 -.00005422  00000-0 -32262-3 0  9997,2 53896  53.2179 302.1424 0000910  98.0911 262.0184 15.08867006 47144,6917.798,95.436,540.292,539.033,0.0
53896.0,STARLINK-5037,PAYLOAD,2023-07-26 15:09:34,15.08844991,0.0002049,53.2163,300.3571,83.0674,277.0551,0.00014531,2.025e-05,0.0,0 STARLINK-5037,1 53896U 22119L   23207.63165122  .00002025  00000-0  14531-3 0  9992,2 53896  53.2163 300.3571 0002049  83.0674 277.0551 15.08844991 46786,6917.865,95.437,541.148,538.313,0.0
53896.0,STARLINK-5037,PAYLOAD,2023-07-27 05:28:02,15.08840144,0.0001296,53.216,297.6837,80.4023,279.7115,0.00010092,1.319e-05,0.0,0 STARLINK-5037,1 53896U 22119L   23208.22781158  .00001319  00000-0  10092-3 0  9994,2 53896  53.2160 297.6837 0001296  80.4023 279.7115 15.08840144 46879,6917.88,95.438,540.642,538.848,0.0
53896.0,STARLINK-5037,PAYLOAD,2023-07-27 18:11:08,15.0884082,0.0001774,53.2165,295.3021,78.2108,281.9083,8.1596e-05,1.011e-05,0.0,0 STARLINK-5037,1 53896U 22119L   23208.75773255  .00001011  00000-0  81596-4 0  9998,2 53896  53.2165 295.3021 0001774  78.2108 281.9083 15.08840820 47370,6917.878,95.438,540.97,538.516,0.0
53896.0,STARLINK-5037,PAYLOAD,2023-07-27 22:57:17,15.08827598,3.91e-05,53.2162,294.4138,82.5626,277.541,-0.00017959,-3.143e-05,0.0,0 STARLINK-5037,1 53896U 22119L   23208.95645392 -.00003143  00000-0 -17959-3 0  9991,2 53896  53.2162 294.4138 0000391  82.5626 277.5410 15.08827598 46981,6917.918,95.438,540.054,539.513,0.0
53896.0,STARLINK-5037,PAYLOAD,2023-07-28 18:01:55,15.08840692,0.0001267,53.2165,290.8412,89.4607,270.6531,-2.8971e-05,-7.49e-06,0.0,0 STARLINK-5037,1 53896U 22119L   23209.75133281 -.00000749  00000-0 -28971-4 0  9995,2 53896  53.2165 290.8412 0001267  89.4607 270.6531 15.08840692 47100,6917.878,95.438,540.62,538.867,0.0
53896.0,STARLINK-5037,PAYLOAD,2023-07-29 11:31:08,15.08864871,0.0001005,53.2167,287.5698,104.1223,255.9881,-0.00041942,-6.961e-05,0.0,0 STARLINK-5037,1 53896U 22119L   23210.47996066 -.00006961  00000-0 -41942-3 0  9998,2 53896  53.2167 287.5698 0001005 104.1223 255.9881 15.08864871 47211,6917.804,95.436,540.365,538.974,0.0
53896.0,STARLINK-5037,PAYLOAD,2023-07-30 09:46:34,15.08833293,9.13e-05,53.2151,283.4089,83.2934,276.8162,0.00038683,5.873e-05,0.0,0 STARLINK-5037,1 53896U 22119L   23211.40734329  .00005873  00000-0  38683-3 0  9991,2 53896  53.2151 283.4089 0000913  83.2934 276.8162 15.08833293 47359,6917.901,95.438,540.397,539.134,0.0
53896.0,STARLINK-5037,PAYLOAD,2023-07-30 14:32:43,15.08845463,9.58e-05,53.2151,282.5167,78.6641,281.4459,0.00017833,2.552e-05,0.0,0 STARLINK-5037,1 53896U 22119L   23211.60605593  .00002552  00000-0  17833-3 0  9998,2 53896  53.2151 282.5167 0000958  78.6641 281.4459 15.08845463 47384,6917.864,95.437,540.391,539.066,0.0
53896.0,STARLINK-5037,PAYLOAD,2023-08-01 11:03:31,15.08833638,9.49e-05,53.2168,274.1921,77.0039,283.1059,1.0681e-05,-1.18e-06,0.0,0 STARLINK-5037,1 53896U 22119L   23213.46078294 -.00000118  00000-0  10681-4 0  9998,2 53896  53.2168 274.1921 0000949  77.0039 283.1059 15.08833638 47668,6917.9,95.438,540.421,539.108,0.0
53896.0,STARLINK-5037,PAYLOAD,2023-08-02 10:54:18,15.0884301,9.75e-05,53.2162,269.7308,89.8854,270.225,4.8104e-05,4.78e-06,0.0,0 STARLINK-5037,1 53896U 22119L   23214.45437818  .00000478  00000-0  48104-4 0  9998,2 53896  53.2162 269.7308 0000975  89.8854 270.2250 15.08843010 47818,6917.871,95.437,540.411,539.062,0.0
53896.0,STARLINK-5037,PAYLOAD,2023-08-03 10:45:08,15.08748823,0.0001584,53.2164,265.2708,97.4006,262.7166,0.001698,0.00026771,0.0,0 STARLINK-5037,1 53896U 22119L   23215.44801507  .00026771  00000-0  16980-2 0  9997,2 53896  53.2164 265.2708 0001584  97.4006 262.7166 15.08748823 47960,6918.159,95.443,541.12,538.928,0.0
53896.0,STARLINK-5037,PAYLOAD,2023-08-03 15:31:14,15.08848248,0.000104,53.215,264.3783,92.9636,267.1475,0.00015961,2.254e-05,0.0,0 STARLINK-5037,1 53896U 22119L   23215.64669520  .00002254  00000-0  15961-3 0  9995,2 53896  53.2150 264.3783 0001040  92.9636 267.1475 15.08848248 47991,6917.855,95.437,540.44,539.001,0.0
53896.0,STARLINK-5037,PAYLOAD,2023-08-04 10:35:53,15.08836855,0.0001107,53.2162,260.8104,85.1155,274.9964,3.9896e-05,3.47e-06,0.0,0 STARLINK-5037,1 53896U 22119L   23216.44158812  .00000347  00000-0  39896-4 0  9996,2 53896  53.2162 260.8104 0001107  85.1155 274.9964 15.08836855 48111,6917.89,95.438,540.521,538.989,0.0
53896.0,STARLINK-5037,PAYLOAD,2023-08-05 10:26:39,15.08853369,0.0001139,53.2155,256.3483,83.4204,276.6918,0.00025036,3.7e-05,0.0,0 STARLINK-5037,1 53896U 22119L   23217.43517652  .00003700  00000-0  25036-3 0  9993,2 53896  53.2155 256.3483 0001139  83.4204 276.6918 15.08853369 48267,6917.84,95.437,540.492,538.917,0.0
53896.0,STARLINK-5037,PAYLOAD,2023-08-06 08:42:03,15.08839716,0.0001142,53.2153,252.185,86.3896,273.7227,8.7404e-05,1.103e-05,0.0,0 STARLINK-5037,1 53896U 22119L   23218.36254265  .00001103  00000-0  87404-4 0  9997,2 53896  53.2153 252.1850 0001142  86.3896 273.7227 15.08839716 48407,6917.881,95.438,540.536,538.956,0.0
53896.0,STARLINK-5037,PAYLOAD,2023-08-07 11:43:36,15.08842737,0.000113,53.216,247.129,88.1473,271.9649,-1.4075e-05,-5.12e-06,0.0,0 STARLINK-5037,1 53896U 22119L   23219.48862257 -.00000512  00000-0 -14075-4 0  9996,2 53896  53.2160 247.1290 0001130  88.1473 271.9649 15.08842737 48578,6917.872,95.437,540.519,538.955,0.0
53896.0,STARLINK-5037,PAYLOAD,2023-08-08 13:09:46,15.08844324,0.0001092,53.2154,242.3721,80.9794,279.1322,0.00011766,1.585e-05,0.0,0 STARLINK-5037,1 53896U 22119L   23220.54845796  .00001585  00000-0  11766-3 0  9996,2 53896  53.2154 242.3721 0001092  80.9794 279.1322 15.08844324 48730,6917.867,95.437,540.488,538.977,0.0
53896.0,STARLINK-5037,PAYLOAD,2023-08-09 00:17:29,15.08833433,0.0001134,53.2153,240.2908,82.0523,278.0597,3.2688e-05,2.32e-06,0.0,0 STARLINK-5037,1 53896U 22119L   23221.01214807  .00000232  00000-0  32688-4 0  9997,2 53896  53.2153 240.2908 0001134  82.0523 278.0597 15.08833433 48802,6917.9,95.438,540.55,538.981,0.0
53896.0,STARLINK-5037,PAYLOAD,2023-08-10 09:40:35,15.08838723,0.0001163,53.216,234.0464,79.7274,280.3849,8.6841e-06,-1.5e-06,0.0,0 STARLINK-5037,1 53896U 22119L   23222.40318811 -.00000150  00000-0  86841-5 0  9992,2 53896  53.2160 234.0464 0001163  79.7274 280.3849 15.08838723 49013,6917.884,95.438,540.554,538.945,0.0
53896.0,STARLINK-5037,PAYLOAD,2023-08-11 17:28:18,15.0883683,0.0001123,53.2153,228.0986,83.769,276.343,5.9838e-05,6.65e-06,0.0,0 STARLINK-5037,1 53896U 22119L   23223.72799104  .00000665  00000-0  59838-4 0  9991,2 53896  53.2153 228.0986 0001123  83.7690 276.3430 15.08836830 49210,6917.89,95.438,540.532,538.978,0.0
53896.0,STARLINK-5037,PAYLOAD,2023-08-12 23:40:37,15.08840109,0.0001181,53.2155,222.4486,86.3646,273.7481,6.9691e-05,8.21e-06,0.0,0 STARLINK-5037,1 53896U 22119L   23224.98654972  .00000821  00000-0  69691-4 0  9995,2 53896  53.2155 222.4486 0001181  86.3646 273.7481 15.08840109 49401,6917.88,95.438,540.562,538.928,0.0
53896.0,STARLINK-5037,PAYLOAD,2023-08-14 09:03:43,15.08842852,0.0001236,53.2161,216.2042,86.4143,273.699,3.2234e-05,2.25e-06,0.0,0 STARLINK-5037,1 53896U 22119L   23226.37758848  .00000225  00000-0  32234-4 0  9998,2 53896  53.2161 216.2042 0001236  86.4143 273.6990 15.08842852 49615,6917.872,95.437,540.592,538.882,0.0
53896.0,STARLINK-5037,PAYLOAD,2023-08-16 02:23:45,15.0883717,0.0001279,53.2156,208.4711,94.943,265.1708,3.4196e-05,2.56e-06,0.0,0 STARLINK-5037,1 53896U 22119L   23228.09983171  .00000256  00000-0  34196-4 0  9991,2 53896  53.2156 208.4711 0001279  94.9430 265.1708 15.08837170 49873,6917.889,95.438,540.639,538.869,0.0
53896.0,STARLINK-5037,PAYLOAD,2023-08-17 10:11:27,15.08845257,0.0001262,53.216,202.5241,93.7068,266.4068,7.0647e-05,8.37e-06,0.0,0 STARLINK-5037,1 53896U 22119L   23229.42462665  .00000837  00000-0  70647-4 0  9995,2 53896  53.2160 202.5241 0001262  93.7068 266.4068 15.08845257 50079,6917.864,95.437,540.602,538.856,0.0
